{"version": 0.6, "generator": "Overpass API 0.7.62.8 e802775f", "osm3s": {"timestamp_osm_base": "2025-12-06T11:59:15Z", "copyright": "The data included in this document is from www.openstreetmap.org. The data is made available under ODbL."}, "elements": [{"type": "node", "id": 5628227243, "lat": 34.5927073, "lon": 69.0832032, "tags": {"amenity": "clinic", "healthcare": "clinic", "name:en": "\u06a9\u0644\u06cc\u0646\u06a9 \u06a9\u0647\u06a9\u0634\u0627\u0646"}}, {"type": "node", "id": 5746313121, "lat": 34.5660618, "lon": 69.398452, "tags": {"amenity": "clinic", "name:fa": "\u0633\u0631\u0627\u067e\u0627\u0647"}}, {"type": "node", "id": 5973860643, "lat": 34.4995883, "lon": 69.0637156, "tags": {"amenity": "clinic", "healthcare": "clinic", "name": "\u06a9\u0644\u0646\u06cc\u06a9 \u0639\u0627\u0644\u0645\u06cc", "name:en": "Alime Clinic"}}, {"type": "node", "id": 7049643089, "lat": 34.5440099, "lon": 69.1408561, "tags": {"amenity": "clinic", "healthcare": "clinic", "name": "\u06a9\u0644\u06cc\u0646\u06cc\u06a9 \u0622\u06cc\u0646\u0647 \u0635\u062d\u062a"}}, {"type": "node", "id": 7098057300, "lat": 34.5449477, "lon": 69.1667109, "tags": {"amenity": "clinic", "healthcare": "clinic", "name": "Hareer Dental"}}, {"type": "node", "id": 8008613066, "lat": 34.5326898, "lon": 69.1655419, "tags": {"amenity": "clinic", "healthcare": "clinic", "name": "\u06a9\u0644\u06cc\u0646\u06cc\u06a9 \u062a\u062e\u0635\u0635\u06cc \u0627\u0648\u0631\u062a\u0648\u067e\u062f\u06cc \u062f\u0627\u06a9\u062a\u0631 \u0638\u0627\u0647\u0631 \u0639\u062b\u0645\u0627\u0646"}}, {"type": "node", "id": 8133091130, "lat": 34.5029524, "lon": 69.1341262, "tags": {"amenity": "clinic", "healthcare": "clinic", "name": "\u06a9\u0644\u06cc\u0646\u06cc\u06a9 \u0633\u0631\u0627\u067e\u0627 \u06a9\u0627\u0628\u0644 \u0633\u06cc\u0631\u062a"}}, {"type": "node", "id": 8299345288, "lat": 34.3725098, "lon": 69.3963571}, {"type": "node", "id": 8299345289, "lat": 34.3727565, "lon": 69.3965813}, {"type": "node", "id": 8299345290, "lat": 34.3731574, "lon": 69.3960442}, {"type": "node", "id": 8299345291, "lat": 34.3726586, "lon": 69.3958583}, {"type": "node", "id": 8489102113, "lat": 34.576533, "lon": 69.0974811, "tags": {"amenity": "clinic", "healthcare": "clinic", "name": "\u0634\u0641\u0627\u062e\u0627\u0646\u0647 \u0627\u0648\u0631\u062a\u067e\u06cc\u062f\u06cc \u06a9\u0645\u0627\u0644"}}, {"type": "node", "id": 8502345630, "lat": 34.5105982, "lon": 69.1425378, "tags": {"amenity": "clinic", "healthcare": "clinic", "name": "\u06a9\u0644\u06cc\u0646\u06cc\u06a9 \u0646\u062b\u0627\u0631 \u0646\u06cc\u0627\u0632\u06cc"}}, {"type": "node", "id": 8735515045, "lat": 34.5349671, "lon": 69.1391304, "tags": {"amenity": "clinic", "healthcare": "clinic", "name": "\u0645\u0631\u06a9\u0632 \u062a\u0634\u062e\u06cc\u0635 \u0627\u0644\u0631\u0698\u06cc (\u062d\u0633\u0627\u0633\u06cc\u062a) \u0627\u0638\u0647\u0631"}}, {"type": "node", "id": 8806268871, "lat": 34.5350803, "lon": 69.1394095, "tags": {"amenity": "clinic", "healthcare": "clinic", "name": "\u0645\u0631\u06a9\u0632 \u0622\u0644\u0631\u0698\u06cc (\u062d\u0633\u0627\u0633\u06cc\u062a) \u0627\u0641\u063a\u0627\u0646\u0633\u062a\u0627\u0646"}}, {"type": "node", "id": 8964560284, "lat": 34.5550907, "lon": 69.2093387, "tags": {"amenity": "clinic", "name": "\u06a9\u0644\u06cc\u0646\u06cc\u06a9 \u0645\u0639\u0627\u0644\u062c\u0648\u06cc \u0648 \u0632\u0627\u06cc\u0634\u06af\u0627\u0647 \u0645\u0647\u0631"}}, {"type": "node", "id": 9319490042, "lat": 34.507776, "lon": 69.2372361, "tags": {"amenity": "clinic", "contact:email": "darman_ngo@yahoo.com", "contact:website": "www.darmanafghanistan.org", "healthcare": "clinic", "name": "\u062f\u0631\u0645\u0627\u0646 \u067e\u0648\u0644\u06cc \u06a9\u0644\u06cc\u0646\u06a9", "name:en": "Darman Polyclinic"}}, {"type": "node", "id": 9948100453, "lat": 34.5333861, "lon": 69.1414346, "tags": {"amenity": "clinic", "healthcare": "clinic", "name": "Doctor Najib Dabiri Clinic"}}, {"type": "node", "id": 10292342608, "lat": 34.5036832, "lon": 69.0355195}, {"type": "node", "id": 10292342990, "lat": 34.5033967, "lon": 69.0363195}, {"type": "node", "id": 10292346956, "lat": 34.5040581, "lon": 69.0357145}, {"type": "node", "id": 10292348909, "lat": 34.503772, "lon": 69.0365617}, {"type": "node", "id": 10552730831, "lat": 34.5013123, "lon": 69.0736191, "tags": {"amenity": "clinic", "healthcare": "clinic", "name": "Clinic 50 bestar Dashte Barchi", "operator": "government", "operator:type": "community"}}, {"type": "node", "id": 10559574133, "lat": 34.500847, "lon": 69.0742254, "tags": {"amenity": "clinic", "healthcare": "clinic", "name": "Arman Gharb"}}, {"type": "node", "id": 11455452069, "lat": 34.4871366, "lon": 69.1382363, "tags": {"addr:postcode": "1004", "addr:street": "\u0633\u0631\u06a9 \u062f\u0627\u0631\u0627\u0644\u0627\u0645\u0627\u0646", "amenity": "clinic", "email": "zafar_fazli@yahoo.com", "healthcare": "laboratory", "internet_access": "wlan", "name": "Estiqlal Medcal Laboratory", "phone": "0789286528"}}, {"type": "node", "id": 12369296040, "lat": 34.5472472, "lon": 69.2560208, "tags": {"amenity": "clinic", "fixme": "position", "healthcare": "rehabilitation", "healthcare:speciality": "rehabilitation", "name": "\u0645\u0631\u0643\u0632 \u0627\u0628\u0646 \u0633\u064a\u0646\u0627 \u0644\u0625\u0639\u0627\u062f\u0629 \u0627\u0644\u062a\u0623\u0647\u064a\u0644", "name:en": "Avicenna Rehabilitation Center", "name:fa": "\u0645\u0631\u0643\u0632 \u0627\u0628\u0646 \u0633\u064a\u0646\u0627 \u0644\u0625\u0639\u0627\u062f\u0629 \u0627\u0644\u062a\u0623\u0647\u064a\u0644"}}, {"type": "way", "id": 892961348, "nodes": [8299345288, 8299345289, 8299345290, 8299345291, 8299345288], "tags": {"amenity": "clinic", "building": "yes", "healthcare": "clinic", "healthcare:speciality": "general", "name": "\u06a9\u0644\u06cc\u0646\u06a9 \u0648\u0644\u0633\u0648\u0627\u0644\u06cc \u062e\u0627\u06a9\u062c\u0628\u0627\u0631", "name:en": "Clinic Khaki Jabbar", "opening_hours": "sunrise-sunset"}}, {"type": "way", "id": 1125514811, "nodes": [10292342990, 10292342608, 10292346956, 10292348909, 10292342990], "tags": {"addr:city": "kabul Afghanistan", "amenity": "clinic", "building": "yes", "healthcare": "clinic", "name": "Clinic jame polekhoshk", "name:fa": "\u06a9\u0644\u06cc\u0646\u06cc\u06a9 \u062c\u0627\u0645\u0639 \u067e\u0644\u062e\u0634\u06a9(\u06a9\u0644\u06cc\u0646\u06cc\u06a9 \u0686\u0647\u0644 \u062f\u062e\u062a\u0631\u0627\u0646)"}}]}