{"version": 0.6, "generator": "Overpass API 0.7.62.8 e802775f", "osm3s": {"timestamp_osm_base": "2025-12-06T11:51:06Z", "copyright": "The data included in this document is from www.openstreetmap.org. The data is made available under ODbL."}, "elements": [{"type": "node", "id": 9024716956, "lat": 31.5809432, "lon": 64.3555121, "tags": {"addr:city": "\u0644\u0634\u06a9\u0631 \u06af\u0627\u06c1", "amenity": "clinic", "healthcare": "clinic", "name": "\u0627\u06cc\u0645 \u0627\u06cc\u0633 \u0627\u06cc\u0641 \u0644\u0634\u06a9\u0631 \u06af\u0627\u06c1", "name:en": "MSF Lashkar Gah", "name:ur": "\u0627\u06cc\u0645 \u0627\u06cc\u0633 \u0627\u06cc\u0641 \u0644\u0634\u06a9\u0631 \u06af\u0627\u06c1", "operator": "M\u00e9decins sans fronti\u00e8res", "operator:ar": "\u0623\u0637\u0628\u0627\u0621 \u0628\u0644\u0627 \u062d\u062f\u0648\u062f", "operator:ps": "\u0645\u06cc\u0688\u06cc\u0633\u0646 \u0633\u0627\u0646\u0633 \u0641\u0631\u0646\u0679\u06cc\u0631\u0633", "operator:short": "MSF", "operator:type": "ngo", "operator:ur": "\u0645\u06cc\u0688\u06cc\u0633\u0646 \u0633\u0627\u0646\u0633 \u0641\u0631\u0646\u0679\u06cc\u0631\u0633", "operator:wikidata": "Q49330", "operator:wikipedia": "ur:\u0645\u06cc\u0688\u06cc\u0633\u0646 \u0633\u0627\u0646\u0633 \u0641\u0631\u0646\u0679\u06cc\u0631\u0633", "operator:wikipedia:ar": "\u0623\u0637\u0628\u0627\u0621 \u0628\u0644\u0627 \u062d\u062f\u0648\u062f", "operator:wikipedia:ur": "\u0645\u06cc\u0688\u06cc\u0633\u0646 \u0633\u0627\u0646\u0633 \u0641\u0631\u0646\u0679\u06cc\u0631\u0633"}}, {"type": "node", "id": 11573258307, "lat": 31.5948982, "lon": 64.3751757, "tags": {"addr:city": "Lashkargah", "addr:postcode": "3901", "amenity": "clinic", "healthcare": "clinic", "healthcare:speciality": "general", "name": "Karta E Lagan Clinic", "opening_hours": "24/7", "operator": "Government", "operator:type": "government"}}, {"type": "node", "id": 12357489239, "lat": 31.5938393, "lon": 64.3716511, "tags": {"amenity": "clinic", "fixme": "resurvey", "healthcare": "clinic", "name": "Surgical Centre for War Victims"}}]}